[{"OBJECT_NAME":"STARLINK-32174","OBJECT_ID":"2024-183A","EPOCH":"2025-08-15T09:46:11.133984","MEAN_MOTION":15.39617395,"ECCENTRICITY":8.71e-5,"INCLINATION":53.1611,"RA_OF_ASC_NODE":12.5142,"ARG_OF_PERICENTER":84.4803,"MEAN_ANOMALY":275.6301,"EPHEMERIS_TYPE":0,"CLASSIFICATION_TYPE":"U","NORAD_CAT_ID":61509,"ELEMENT_SET_NO":999,"REV_AT_EPOCH":4818,"BSTAR":2.091e-5,"MEAN_MOTION_DOT":4.37e-6,"MEAN_MOTION_DDOT":0},{"OBJECT_NAME":"STARLINK-32139","OBJECT_ID":"2024-183B","EPOCH":"2025-08-14T20:24:57.912192","MEAN_MOTION":15.30197429,"ECCENTRICITY":7.2e-5,"INCLINATION":53.1614,"RA_OF_ASC_NODE":23.2579,"ARG_OF_PERICENTER":70.6667,"MEAN_ANOMALY":289.4411,"EPHEMERIS_TYPE":0,"CLASSIFICATION_TYPE":"U","NORAD_CAT_ID":61510,"ELEMENT_SET_NO":999,"REV_AT_EPOCH":4798,"BSTAR":2.307e-6,"MEAN_MOTION_DOT":-2.9e-6,"MEAN_MOTION_DDOT":0},{"OBJECT_NAME":"STARLINK-32140","OBJECT_ID":"2024-183C","EPOCH":"2025-08-14T20:00:40.198176","MEAN_MOTION":15.30180273,"ECCENTRICITY":0.0001092,"INCLINATION":53.1616,"RA_OF_ASC_NODE":23.15,"ARG_OF_PERICENTER":87.8607,"MEAN_ANOMALY":272.2519,"EPHEMERIS_TYPE":0,"CLASSIFICATION_TYPE":"U","NORAD_CAT_ID":61511,"ELEMENT_SET_NO":999,"REV_AT_EPOCH":4798,"BSTAR":-4.7047e-5,"MEAN_MOTION_DOT":-1.751e-5,"MEAN_MOTION_DDOT":0},{"OBJECT_NAME":"STARLINK-32201","OBJECT_ID":"2024-183D","EPOCH":"2025-08-14T17:04:12.080352","MEAN_MOTION":15.39622208,"ECCENTRICITY":9.28e-5,"INCLINATION":53.161,"RA_OF_ASC_NODE":15.9917,"ARG_OF_PERICENTER":86.3275,"MEAN_ANOMALY":273.7836,"EPHEMERIS_TYPE":0,"CLASSIFICATION_TYPE":"U","NORAD_CAT_ID":61512,"ELEMENT_SET_NO":999,"REV_AT_EPOCH":4807,"BSTAR":3.6616e-5,"MEAN_MOTION_DOT":1.066e-5,"MEAN_MOTION_DDOT":0},{"OBJECT_NAME":"STARLINK-32030","OBJECT_ID":"2024-183E","EPOCH":"2025-08-15T10:40:33.794112","MEAN_MOTION":15.30195874,"ECCENTRICITY":0.0001063,"INCLINATION":53.1623,"RA_OF_ASC_NODE":20.5664,"ARG_OF_PERICENTER":70.9367,"MEAN_ANOMALY":289.1749,"EPHEMERIS_TYPE":0,"CLASSIFICATION_TYPE":"U","NORAD_CAT_ID":61513,"ELEMENT_SET_NO":999,"REV_AT_EPOCH":4807,"BSTAR":3.1846e-5,"MEAN_MOTION_DOT":5.84e-6,"MEAN_MOTION_DDOT":0},{"OBJECT_NAME":"STARLINK-31837","OBJECT_ID":"2024-183F","EPOCH":"2025-08-15T10:22:19.729920","MEAN_MOTION":15.30193887,"ECCENTRICITY":0.0001277,"INCLINATION":53.1626,"RA_OF_ASC_NODE":20.4767,"ARG_OF_PERICENTER":77.2067,"MEAN_ANOMALY":282.9076,"EPHEMERIS_TYPE":0,"CLASSIFICATION_TYPE":"U","NORAD_CAT_ID":61514,"ELEMENT_SET_NO":999,"REV_AT_EPOCH":4807,"BSTAR":1.8438e-5,"MEAN_MOTION_DOT":1.87e-6,"MEAN_MOTION_DDOT":0},{"OBJECT_NAME":"STARLINK-32136","OBJECT_ID":"2024-183G","EPOCH":"2025-08-15T10:54:14.728896","MEAN_MOTION":15.30190841,"ECCENTRICITY":0.0001108,"INCLINATION":53.1621,"RA_OF_ASC_NODE":20.6284,"ARG_OF_PERICENTER":95.1552,"MEAN_ANOMALY":264.9575,"EPHEMERIS_TYPE":0,"CLASSIFICATION_TYPE":"U","NORAD_CAT_ID":61515,"ELEMENT_SET_NO":999,"REV_AT_EPOCH":4807,"BSTAR":2.2236e-5,"MEAN_MOTION_DOT":2.99e-6,"MEAN_MOTION_DDOT":0},{"OBJECT_NAME":"STARLINK-32047","OBJECT_ID":"2024-183H","EPOCH":"2025-08-14T20:11:17.012832","MEAN_MOTION":15.30193772,"ECCENTRICITY":8.95e-5,"INCLINATION":53.161,"RA_OF_ASC_NODE":23.1843,"ARG_OF_PERICENTER":79.6854,"MEAN_ANOMALY":280.4248,"EPHEMERIS_TYPE":0,"CLASSIFICATION_TYPE":"U","NORAD_CAT_ID":61516,"ELEMENT_SET_NO":999,"REV_AT_EPOCH":4798,"BSTAR":3.8886e-5,"MEAN_MOTION_DOT":7.93e-6,"MEAN_MOTION_DDOT":0},{"OBJECT_NAME":"STARLINK-31756","OBJECT_ID":"2024-183J","EPOCH":"2025-08-14T19:36:29.583648","MEAN_MOTION":15.30188863,"ECCENTRICITY":0.0001179,"INCLINATION":53.1624,"RA_OF_ASC_NODE":23.7004,"ARG_OF_PERICENTER":95.2893,"MEAN_ANOMALY":264.8242,"EPHEMERIS_TYPE":0,"CLASSIFICATION_TYPE":"U","NORAD_CAT_ID":61517,"ELEMENT_SET_NO":999,"REV_AT_EPOCH":4797,"BSTAR":3.1927e-6,"MEAN_MOTION_DOT":-2.65e-6,"MEAN_MOTION_DDOT":0},{"OBJECT_NAME":"STARLINK-32172","OBJECT_ID":"2024-183K","EPOCH":"2025-08-14T20:06:43.642368","MEAN_MOTION":15.30190925,"ECCENTRICITY":0.0001123,"INCLINATION":53.1615,"RA_OF_ASC_NODE":23.1636,"ARG_OF_PERICENTER":78.7721,"MEAN_ANOMALY":281.3405,"EPHEMERIS_TYPE":0,"CLASSIFICATION_TYPE":"U","NORAD_CAT_ID":61518,"ELEMENT_SET_NO":999,"REV_AT_EPOCH":4798,"BSTAR":4.4473e-5,"MEAN_MOTION_DOT":9.58e-6,"MEAN_MOTION_DDOT":0},{"OBJECT_NAME":"STARLINK-32338","OBJECT_ID":"2024-183L","EPOCH":"2025-08-14T19:56:05.811648","MEAN_MOTION":15.3018901,"ECCENTRICITY":0.0001162,"INCLINATION":53.1615,"RA_OF_ASC_NODE":23.1202,"ARG_OF_PERICENTER":73.3386,"MEAN_ANOMALY":286.7742,"EPHEMERIS_TYPE":0,"CLASSIFICATION_TYPE":"U","NORAD_CAT_ID":61519,"ELEMENT_SET_NO":999,"REV_AT_EPOCH":4798,"BSTAR":4.123e-5,"MEAN_MOTION_DOT":8.62e-6,"MEAN_MOTION_DDOT":0},{"OBJECT_NAME":"STARLINK-32306","OBJECT_ID":"2024-183M","EPOCH":"2025-08-14T19:51:31.821696","MEAN_MOTION":15.30194174,"ECCENTRICITY":0.0001152,"INCLINATION":53.1617,"RA_OF_ASC_NODE":23.0983,"ARG_OF_PERICENTER":88.9656,"MEAN_ANOMALY":271.1477,"EPHEMERIS_TYPE":0,"CLASSIFICATION_TYPE":"U","NORAD_CAT_ID":61520,"ELEMENT_SET_NO":999,"REV_AT_EPOCH":4798,"BSTAR":1.1084e-5,"MEAN_MOTION_DOT":-3.1e-7,"MEAN_MOTION_DDOT":0},{"OBJECT_NAME":"STARLINK-32297","OBJECT_ID":"2024-183N","EPOCH":"2025-08-14T19:46:58.507392","MEAN_MOTION":15.30187917,"ECCENTRICITY":0.0001291,"INCLINATION":53.1622,"RA_OF_ASC_NODE":23.079,"ARG_OF_PERICENTER":93.1448,"MEAN_ANOMALY":266.97,"EPHEMERIS_TYPE":0,"CLASSIFICATION_TYPE":"U","NORAD_CAT_ID":61521,"ELEMENT_SET_NO":999,"REV_AT_EPOCH":4798,"BSTAR":2.8833e-5,"MEAN_MOTION_DOT":4.95e-6,"MEAN_MOTION_DDOT":0},{"OBJECT_NAME":"STARLINK-32260","OBJECT_ID":"2024-183P","EPOCH":"2025-08-15T09:48:52.499808","MEAN_MOTION":15.3020429,"ECCENTRICITY":5.58e-5,"INCLINATION":53.1627,"RA_OF_ASC_NODE":20.3281,"ARG_OF_PERICENTER":99.8897,"MEAN_ANOMALY":260.2167,"EPHEMERIS_TYPE":0,"CLASSIFICATION_TYPE":"U","NORAD_CAT_ID":61522,"ELEMENT_SET_NO":999,"REV_AT_EPOCH":4807,"BSTAR":5.7894e-5,"MEAN_MOTION_DOT":1.356e-5,"MEAN_MOTION_DDOT":0},{"OBJECT_NAME":"STARLINK-32305","OBJECT_ID":"2024-183Q","EPOCH":"2025-08-14T11:05:12.478272","MEAN_MOTION":15.3019163,"ECCENTRICITY":0.0001125,"INCLINATION":53.1617,"RA_OF_ASC_NODE":25.0839,"ARG_OF_PERICENTER":70.4338,"MEAN_ANOMALY":289.6784,"EPHEMERIS_TYPE":0,"CLASSIFICATION_TYPE":"U","NORAD_CAT_ID":61523,"ELEMENT_SET_NO":999,"REV_AT_EPOCH":4792,"BSTAR":4.502e-6,"MEAN_MOTION_DOT":-2.26e-6,"MEAN_MOTION_DDOT":0},{"OBJECT_NAME":"STARLINK-32296","OBJECT_ID":"2024-183R","EPOCH":"2025-08-14T19:37:51.626496","MEAN_MOTION":15.30189174,"ECCENTRICITY":0.0001144,"INCLINATION":53.1628,"RA_OF_ASC_NODE":23.0382,"ARG_OF_PERICENTER":94.891,"MEAN_ANOMALY":265.2221,"EPHEMERIS_TYPE":0,"CLASSIFICATION_TYPE":"U","NORAD_CAT_ID":61524,"ELEMENT_SET_NO":999,"REV_AT_EPOCH":4798,"BSTAR":-3.0821e-6,"MEAN_MOTION_DOT":-4.5e-6,"MEAN_MOTION_DDOT":0},{"OBJECT_NAME":"STARLINK-32298","OBJECT_ID":"2024-183S","EPOCH":"2025-08-14T19:33:17.663328","MEAN_MOTION":15.30211287,"ECCENTRICITY":0.0001173,"INCLINATION":53.162,"RA_OF_ASC_NODE":23.0188,"ARG_OF_PERICENTER":87.6104,"MEAN_ANOMALY":272.5031,"EPHEMERIS_TYPE":0,"CLASSIFICATION_TYPE":"U","NORAD_CAT_ID":61525,"ELEMENT_SET_NO":999,"REV_AT_EPOCH":4798,"BSTAR":-0.00012652,"MEAN_MOTION_DOT":-4.106e-5,"MEAN_MOTION_DDOT":0},{"OBJECT_NAME":"STARLINK-32293","OBJECT_ID":"2024-183T","EPOCH":"2025-08-15T11:09:25.971552","MEAN_MOTION":15.30195031,"ECCENTRICITY":0.0001072,"INCLINATION":53.1615,"RA_OF_ASC_NODE":20.676,"ARG_OF_PERICENTER":94.7162,"MEAN_ANOMALY":265.3961,"EPHEMERIS_TYPE":0,"CLASSIFICATION_TYPE":"U","NORAD_CAT_ID":61526,"ELEMENT_SET_NO":999,"REV_AT_EPOCH":4807,"BSTAR":4.1336e-7,"MEAN_MOTION_DOT":-3.47e-6,"MEAN_MOTION_DDOT":0},{"OBJECT_NAME":"STARLINK-32313","OBJECT_ID":"2024-183U","EPOCH":"2025-08-15T11:00:18.989568","MEAN_MOTION":15.30210082,"ECCENTRICITY":0.0001631,"INCLINATION":53.1619,"RA_OF_ASC_NODE":20.6373,"ARG_OF_PERICENTER":91.8687,"MEAN_ANOMALY":268.2501,"EPHEMERIS_TYPE":0,"CLASSIFICATION_TYPE":"U","NORAD_CAT_ID":61527,"ELEMENT_SET_NO":999,"REV_AT_EPOCH":4807,"BSTAR":-0.00012094,"MEAN_MOTION_DOT":-3.941e-5,"MEAN_MOTION_DDOT":0},{"OBJECT_NAME":"STARLINK-32319","OBJECT_ID":"2024-183V","EPOCH":"2025-08-15T11:07:54.682176","MEAN_MOTION":15.30207506,"ECCENTRICITY":9.63e-5,"INCLINATION":53.1605,"RA_OF_ASC_NODE":20.6692,"ARG_OF_PERICENTER":86.2819,"MEAN_ANOMALY":273.8292,"EPHEMERIS_TYPE":0,"CLASSIFICATION_TYPE":"U","NORAD_CAT_ID":61528,"ELEMENT_SET_NO":999,"REV_AT_EPOCH":4807,"BSTAR":-7.3877e-5,"MEAN_MOTION_DOT":-2.547e-5,"MEAN_MOTION_DDOT":0},{"OBJECT_NAME":"STARLINK-32351","OBJECT_ID":"2024-183W","EPOCH":"2025-08-14T20:10:21.678816","MEAN_MOTION":15.30199797,"ECCENTRICITY":5.98e-5,"INCLINATION":53.1614,"RA_OF_ASC_NODE":20.3592,"ARG_OF_PERICENTER":72.7578,"MEAN_ANOMALY":287.3489,"EPHEMERIS_TYPE":0,"CLASSIFICATION_TYPE":"U","NORAD_CAT_ID":61529,"ELEMENT_SET_NO":999,"REV_AT_EPOCH":4802,"BSTAR":5.5985e-5,"MEAN_MOTION_DOT":1.3e-5,"MEAN_MOTION_DDOT":0},{"OBJECT_NAME":"STARLINK-32261","OBJECT_ID":"2024-183X","EPOCH":"2025-08-15T10:45:07.337376","MEAN_MOTION":15.3019466,"ECCENTRICITY":8.25e-5,"INCLINATION":53.1614,"RA_OF_ASC_NODE":20.5854,"ARG_OF_PERICENTER":83.2295,"MEAN_ANOMALY":276.8799,"EPHEMERIS_TYPE":0,"CLASSIFICATION_TYPE":"U","NORAD_CAT_ID":61530,"ELEMENT_SET_NO":999,"REV_AT_EPOCH":4807,"BSTAR":2.1057e-5,"MEAN_MOTION_DOT":2.65e-6,"MEAN_MOTION_DDOT":0},{"OBJECT_NAME":"STARLINK-32358","OBJECT_ID":"2024-183Y","EPOCH":"2025-08-15T10:20:48.640128","MEAN_MOTION":15.30192388,"ECCENTRICITY":0.0001208,"INCLINATION":53.1626,"RA_OF_ASC_NODE":20.4767,"ARG_OF_PERICENTER":84.4284,"MEAN_ANOMALY":275.6855,"EPHEMERIS_TYPE":0,"CLASSIFICATION_TYPE":"U","NORAD_CAT_ID":61531,"ELEMENT_SET_NO":999,"REV_AT_EPOCH":4807,"BSTAR":1.6719e-5,"MEAN_MOTION_DOT":1.36e-6,"MEAN_MOTION_DDOT":0},{"OBJECT_NAME":"STARLINK-11354 [DTC]","OBJECT_ID":"2024-184A","EPOCH":"2025-08-15T13:49:35.630976","MEAN_MOTION":15.69696993,"ECCENTRICITY":9.85e-5,"INCLINATION":53.159,"RA_OF_ASC_NODE":172.4227,"ARG_OF_PERICENTER":78.6045,"MEAN_ANOMALY":281.5083,"EPHEMERIS_TYPE":0,"CLASSIFICATION_TYPE":"U","NORAD_CAT_ID":61532,"ELEMENT_SET_NO":999,"REV_AT_EPOCH":4804,"BSTAR":-7.402e-6,"MEAN_MOTION_DOT":-1.484e-5,"MEAN_MOTION_DDOT":0}]
